ONEWEB-0716             
1 55177U 23004AP  25101.95551319  .00000040  00000+0  69383-4 0  9997
2 55177  87.9008  91.7664 0002099  82.2256 277.9114 13.17652042110797
ONEWEB-0717             
1 55178U 23004AQ  25101.93864688  .00000027  00000+0  37199-4 0  9997
2 55178  87.9008  91.7294 0002224 108.9629 251.1743 13.17646793110841
ONEWEB-0719             
1 55179U 23004AR  25101.94877794  .00000044  00000+0  81280-4 0  9990
2 55179  87.9007  91.7119 0002175  84.2927 275.8452 13.17647832110798
ONEWEB-0530             
1 55796U 23029A   25101.95855217  .00000034  00000+0  50642-4 0  9996
2 55796  87.9330   0.3295 0002221  92.3279 267.8108 13.20773963104224
ONEWEB-0534             
1 55797U 23029B   25101.94592607  .00000034  00000+0  50851-4 0  9999
2 55797  87.9331   0.3395 0001908  76.6259 283.5087 13.20773049104227
ONEWEB-0556             
1 55798U 23029C   25101.95224526  .00000041  00000+0  70014-4 0  9994
2 55798  87.9330   0.3305 0002638  79.2887 280.8543 13.20772161104226
ONEWEB-0562             
1 55799U 23029D   25101.93962037 -.00000018  00000+0 -75679-4 0  9997
2 55799  87.9330   0.3255 0002685  92.0042 268.1398 13.20771256104220
ONEWEB-0563             
1 55800U 23029E   25101.70603551  .00000003  00000+0 -24180-4 0  9992
2 55800  87.9330   0.3864 0001923  70.3256 289.8084 13.20771716104187
